[{"OBJECT_NAME":"ONEWEB-0416","OBJECT_ID":"2022-012D","EPOCH":"2026-03-09T21:49:19.862688","MEAN_MOTION":13.10372889,"ECCENTRICITY":0.00022098,"INCLINATION":87.8773,"RA_OF_ASC_NODE":56.0521,"ARG_OF_PERICENTER":78.4587,"MEAN_ANOMALY":281.6789,"EPHEMERIS_TYPE":0,"CLASSIFICATION_TYPE":"U","NORAD_CAT_ID":51625,"ELEMENT_SET_NO":999,"REV_AT_EPOCH":19632,"BSTAR":-0.0018301995,"MEAN_MOTION_DOT":-6.26e-6,"MEAN_MOTION_DDOT":0},{"OBJECT_NAME":"UNKNOWN","OBJECT_ID":"","EPOCH":"2026-03-08T14:10:37.544448","MEAN_MOTION":13.06131358,"ECCENTRICITY":0.00321564,"INCLINATION":90.3146,"RA_OF_ASC_NODE":12.8537,"ARG_OF_PERICENTER":351.688,"MEAN_ANOMALY":8.3709,"EPHEMERIS_TYPE":0,"CLASSIFICATION_TYPE":"U","NORAD_CAT_ID":270149,"ELEMENT_SET_NO":999,"REV_AT_EPOCH":29823,"BSTAR":0.0032281865,"MEAN_MOTION_DOT":1.07e-5,"MEAN_MOTION_DDOT":0}]
